KUIPER-00112            
1 65150U 25171U   25251.44807090  .00017696  00000+0  51405-3 0  9996
2 65150  51.8766 270.1104 0004570 264.8772  95.1692 15.35547108  5533
KUIPER-00114            
1 65151U 25171V   25251.58337963  .00029660  00000+0  10055-2 0  9998
2 65151  51.8785 269.5545 0004749 237.5343  90.3246 15.30295174  4781
KUIPER-00115            
1 65152U 25171W   25251.58337963  .00040443  00000+0  11371-2 0  9993
2 65152  51.8750 269.3437 0004183 227.1191 215.3099 15.36100518  4845
KUIPER-00116            
1 65153U 25171X   25251.31363134  .00017005  00000+0  49177-3 0  9998
2 65153  51.8774 270.7123 0004010 247.4807 112.5755 15.35721161  5512
KUIPER-00118            
1 65154U 25171Y   25251.58337963  .00034886  00000+0  10923-2 0  9991
2 65154  51.8775 269.5018 0003371 252.6737 117.0780 15.32773451  5549
KUIPER-00119            
1 65155U 25171Z   25251.43265043  .00069068  00000+0  18174-2 0  9991
2 65155  51.8746 270.0072 0006632 277.0102  83.0131 15.37903577  5535
